{"type":"FeatureCollection","features":[{"type":"Feature","properties":{"fir":"CRV","name":"Comodoro Rivadavia","icao":"SAVF","layer":"FIR_COMODORO"},"geometry":{"type":"Polygon","coordinates":[[[-10,-46],[-48.489618550214296,-46.005092736373044],[-63.11656998442463,-39.28382957386444],[-63.38298580106069,-39.380889475335614],[-63.38308832147722,-39.35815032926604],[-70.45902911086209,-41.33133262681394],[-70.50275719113864,-41.40849982730199],[-70.55677423148028,-41.475378067724954],[-70.63136919195205,-41.5448285481642],[-70.70081967239129,-41.59370110847329],[-70.80113703302575,-41.64257366878238],[-70.95547143400184,-41.69659070912402],[-71.13810047515688,-41.722313109286695],[-71.475063917288,-41.68115726902641],[-71.72714343888228,-41.55768974824554],[-71.84126365699996,-41.46032545099996],[-71.82840670199994,-41.47991310799995],[-71.85207017599998,-41.514848109999946],[-71.82912542199995,-41.55025992499998],[-71.88554918399996,-41.604791715999966],[-71.78418097199994,-41.734952722999935],[-71.76462656599995,-41.81703459299996],[-71.79748217499997,-41.84263003799998],[-71.77302974299994,-41.93763557099993],[-71.79381171799997,-41.96119604199998],[-71.74554490899999,-42.03720303899996],[-71.72458870699995,-42.05846787199994],[-71.74171130499997,-42.082652707999955],[-71.73281688099996,-42.12382689399993],[-71.77315825499994,-42.12892369699995],[-71.83475296999995,-42.16256926999995],[-71.87445807599994,-42.15470241699995],[-71.89517938499995,-42.18038085099994],[-71.92700667899999,-42.18982896199998],[-71.97042028999994,-42.145065957999975],[-72.01302272099997,-42.13663358499997],[-72.05201324799998,-42.11392395699994],[-72.12106673399995,-42.15488838699997],[-72.17092989399998,-42.13936529799997],[-72.18452162399996,-42.17673087099996],[-72.15680819199997,-42.19373068599998],[-72.15460025799996,-42.24455851799996],[-72.16810369999996,-42.25987034999997],[-72.14049223099994,-42.289948928999934],[-72.13186430699994,-42.38432309199993],[-72.11310793099994,-42.39818722699994],[-72.05940021599997,-42.396296537999945],[-72.02848626499997,-42.40752283299997],[-72.04684142199994,-42.448630391999984],[-72.01429516199994,-42.485340708999956],[-72.02895145199994,-42.517497685999956],[-72.10352255199996,-42.60029482699997],[-72.09602725199994,-42.64203532299996],[-72.12263930699999,-42.67244791199994],[-72.17973667299998,-42.69719121799994],[-72.13766305199994,-42.711948631999974],[-72.13406530799995,-42.75841949599993],[-72.15591827299994,-42.81485078199995],[-72.14597688699996,-42.85165151799998],[-72.12052617699999,-42.87663585399997],[-72.14178668299996,-42.89539892399995],[-72.09342412199999,-42.94971860299995],[-72.07320277699995,-42.949610338999946],[-72.00261975099994,-43.03740818999995],[-71.93482501099999,-43.056235139999956],[-71.93335926399999,-43.09841822499993],[-71.89267999799995,-43.10702235499997],[-71.85733683299998,-43.142577451999955],[-71.81667303399996,-43.14520556699995],[-71.76053203099997,-43.16462196799995],[-71.72941415399998,-43.19968939399996],[-71.75710156199995,-43.228014497999936],[-71.73172421399994,-43.309027053999955],[-71.76863559799995,-43.30010661399996],[-71.84009723699995,-43.33520548499996],[-71.90670117699995,-43.32442493999997],[-71.89015285199997,-43.35981044899995],[-71.91199025799995,-43.38669225199993],[-71.93105316899994,-43.45668524699994],[-71.88044560299994,-43.451894995999965],[-71.84863458899997,-43.482888902999946],[-71.87849087599994,-43.52752640199998],[-71.87747960499996,-43.55108306499994],[-71.78255569899994,-43.542006104999984],[-71.76240470199997,-43.58086122399993],[-71.71940995199998,-43.578739231999975],[-71.70329314899993,-43.62295520999993],[-71.60776254899997,-43.62858977199994],[-71.58145522799998,-43.65168006299996],[-71.60665277799995,-43.70033055599998],[-71.70185833299996,-43.73845555499997],[-71.75349025799994,-43.78898923999998],[-71.76329363799994,-43.837173323999934],[-71.70709076899993,-43.89456592299996],[-71.66723479699994,-43.901085646999945],[-71.64878055599996,-43.94592499899994],[-71.67867042999995,-43.97060344999994],[-71.75053214399998,-44.091466423999975],[-71.78133768099997,-44.11151122899997],[-71.84774393099997,-44.11102294899996],[-71.82810563199996,-44.16667217599996],[-71.79903168899995,-44.19324941599996],[-71.81298315499998,-44.238563676999945],[-71.80876115699994,-44.28821239299998],[-71.78847817799993,-44.33312945899996],[-71.83935105499995,-44.352403092999964],[-71.80442056699997,-44.40108686499997],[-71.80299288999998,-44.419646660999945],[-71.71358474999994,-44.37940684599994],[-71.66927431999994,-44.40848104099996],[-71.63834132699998,-44.39857653299998],[-71.55870064399994,-44.40889266199997],[-71.50889444399996,-44.39380555499997],[-71.44353950799996,-44.39606736999997],[-71.38892582899996,-44.38540668599995],[-71.35266666699994,-44.4034],[-71.34925099899993,-44.42469941999997],[-71.25085123099996,-44.417370680999966],[-71.16941417799995,-44.440529338999966],[-71.13012332799997,-44.47315769699998],[-71.13429498699998,-44.50573760599997],[-71.09146296799997,-44.53254933499994],[-71.11932666799999,-44.59687673999997],[-71.18879722499997,-44.593795548999935],[-71.23446077799997,-44.652388547999976],[-71.19790778399994,-44.689393000999985],[-71.20830154699996,-44.75315254999998],[-71.28981040799994,-44.80967689499994],[-71.37379478299994,-44.79618812699994],[-71.46935253999999,-44.73764424299998],[-71.53120378299997,-44.743022990999975],[-71.61711097799997,-44.777044768999986],[-71.73593260699994,-44.76879255399996],[-71.78947425999996,-44.75305795199995],[-71.85028076199995,-44.80029296899994],[-71.91259765599995,-44.77709960899995],[-71.94519042999997,-44.79119872899997],[-72.05731201199995,-44.75640869099993],[-72.06768798799999,-44.78802490099997],[-72.02874881899999,-44.80519183299998],[-72.06536415799997,-44.848282765999954],[-72.05051632099998,-44.88169039899998],[-71.97776192199996,-44.90424768999998],[-71.93504583799995,-44.93942564099996],[-71.86487077399994,-44.94772995999995],[-71.81721942299998,-44.919789983999976],[-71.74503252399995,-44.95661214299997],[-71.71106571899998,-44.95512497999994],[-71.65728759799998,-44.97558593799994],[-71.60145003399998,-44.970654768999964],[-71.56210803199997,-44.97795019399996],[-71.54152093799996,-44.99933678799994],[-71.54579414899996,-45.03455934799996],[-71.50657772599999,-45.06796680499997],[-71.47007407699994,-45.14876638299995],[-71.42783240199998,-45.15747764499997],[-71.37092364599994,-45.22457482599998],[-71.33694204999995,-45.23675461199997],[-71.32018588799997,-45.29705014499996],[-71.33317774299996,-45.31980254699994],[-71.38274037199994,-45.34943241299993],[-71.44865144299996,-45.369562652999946],[-71.45546060499998,-45.38623708799997],[-71.52775311299996,-45.39137970499996],[-71.50859731999998,-45.460736639999936],[-71.47427363599996,-45.49607693599995],[-71.54450478199993,-45.52048625799995],[-71.60483362599996,-45.522418380999966],[-71.62372527399998,-45.511426693999965],[-71.74021645099998,-45.54143636099997],[-71.76294506299996,-45.576642865999986],[-71.73143136599998,-45.589955499999974],[-71.79552598299995,-45.66679691499996],[-71.77304722099996,-45.681236110999976],[-71.80138080599994,-45.71899060399994],[-71.77122113699994,-45.743736997999974],[-71.74346178399998,-45.80822702599994],[-71.76882683799994,-45.84344304799998],[-71.71850123799999,-45.85415062399994],[-71.66084689799999,-45.883751117999964],[-71.61437602399997,-45.965747344999954],[-71.63441108599994,-45.97652630299996],[-71.67698632499997,-46.04974401399994],[-71.78573335999994,-46.120615585999985],[-71.82475651999994,-46.110574259999964],[-71.87734855699995,-46.12325797699998],[-71.90847190699998,-46.14397356499995],[-71.87567817599995,-46.160862978999944],[-71.85936841499995,-46.19470334399995],[-71.82194042799995,-46.202693901999965],[-71.79301704899996,-46.19089741899995],[-71.75716984199994,-46.220112642999936],[-71.72408700599993,-46.296080803999985],[-71.75652183599993,-46.34562879599997],[-71.66929079499994,-46.52784197099993],[-71.66696225499999,-46.59864854399996],[-71.64682011699995,-46.63395260599998],[-71.64337168299994,-46.684821814999964],[-71.69098398399996,-46.70152063499995],[-71.74095266499995,-46.733369719999985],[-71.77098146299994,-46.766586995999944],[-71.85785360199998,-46.80188738999993],[-71.91409216299996,-46.79899634499998],[-71.95552621299998,-46.81501725499993],[-71.93202308599996,-46.841340043999935],[-71.93164389599997,-46.869262542999934],[-71.97113105099999,-46.90612009599994],[-71.95868513199997,-46.97024552899995],[-71.88004243899996,-47.010104990999935],[-71.90456278399995,-47.05138269099996],[-71.95241255499997,-47.07172113399997],[-71.94974755899995,-47.086755756999935],[-71.89563127899999,-47.101813482999944],[-71.85904119899993,-47.13452650099998],[-71.85056567799995,-47.163862811999934],[-71.88886123599997,-47.17962994699997],[-71.90487560399998,-47.22647637999995],[-71.99677446399994,-47.206468091999966],[-72.01663723199994,-47.24727524699995],[-71.99779849099997,-47.296395476999976],[-72.05511018899995,-47.341448190999984],[-72.13029223399997,-47.32962310199997],[-72.14321984599997,-47.363575631999936],[-72.19805452499998,-47.41611412999998],[-72.23127029299997,-47.40338829799998],[-72.26917510699997,-47.416946465999956],[-72.29343133199995,-47.44624239099994],[-72.34251247499998,-47.457499620999954],[-72.29114008599998,-47.51188886799997],[-72.32703179999999,-47.571364562999975],[-72.31560235699999,-47.59569722899994],[-72.35936619699999,-47.63928538499994],[-72.42081169299996,-47.66162812699997],[-72.41781357199994,-47.694835884999975],[-72.45050716799994,-47.705836131999945],[-72.43569740199996,-47.73300005899995],[-72.47321436399994,-47.75851040899994],[-72.50491711299998,-47.762813506999976],[-72.49524478199999,-47.79796462999997],[-72.47062514199996,-47.81303490199997],[-72.48046226999998,-47.87062837199994],[-72.52174472799999,-47.91031579899993],[-72.52800746999998,-47.934967014999984],[-72.50345975999994,-47.957847614999935],[-72.42725770899995,-47.96574585999997],[-72.42933494999994,-48.043004716999974],[-72.42173462399995,-48.07630408399996],[-72.38397257699995,-48.07118110399995],[-72.30601096599997,-48.14001438899993],[-72.31669910699998,-48.23401023799994],[-72.26534242799994,-48.27780578599993],[-72.23469415699998,-48.32486519699995],[-72.24107111299998,-48.34831716599996],[-72.28580497999997,-48.356236011999954],[-72.35051216099998,-48.348475478999944],[-72.37697434499995,-48.37153570799995],[-72.34629615299997,-48.38534520799993],[-72.40445632699993,-48.41426695999996],[-72.37451608899994,-48.44875852599995],[-72.39886667499997,-48.48385465499996],[-72.44083027499994,-48.51346815799997],[-72.50373517599996,-48.51632168699996],[-72.53750848899995,-48.48228817699993],[-72.58574968199997,-48.48731597699998],[-72.55787667499999,-48.56357968599997],[-72.53514449499994,-48.668323559999976],[-72.54239709199999,-48.741477707999934],[-72.53223203399995,-48.797556844999974],[-72.59522112499997,-48.832163725999976],[-72.64189281499995,-48.86914521899996],[-72.69108714999999,-48.86755830499993],[-72.69435000999994,-48.895388400999934],[-72.73900496899995,-48.90625385599998],[-72.79304728699998,-48.96282791999994],[-72.85061530399997,-48.966094236999936],[-72.86629661499995,-48.94662854999996],[-72.91971075499998,-48.93570206499993],[-72.95144324699999,-48.95121615099998],[-72.95973397499995,-48.98096902899994],[-72.99315043999997,-48.99937644199997],[-72.98348030999995,-49.02633097599994],[-73.01405162499998,-49.037447817999976],[-73.00491449499998,-49.06345056699996],[-73.04492751099997,-49.080868221999935],[-73.06042256099994,-49.125240410999936],[-73.14057708499996,-49.180265446999954],[-73.14367675799997,-49.27099609399994],[-73.47070312499994,-49.201110838999966],[-73.49670410199997,-49.26831054699994],[-73.43231201199995,-49.31408691299998],[-73.42761230499997,-49.39361572299998],[-73.46771240199996,-49.40557861299993],[-73.48950195299994,-49.43432617199994],[-73.46380615199996,-49.48248290999993],[-73.48779296899994,-49.500488280999946],[-73.54479980499997,-49.504699706999986],[-73.53601074199997,-49.564025878999985],[-73.49218749999994,-49.57922363199998],[-73.46099853499999,-49.62451171899994],[-73.50610351599994,-49.66619872899997],[-73.50451660199997,-49.70941162099996],[-73.47460937499994,-49.72021484399994],[-73.43878173799999,-49.75781249999994],[-73.44531249999994,-49.79388427699996],[-73.49652099599996,-49.814392089999956],[-73.49047851599994,-49.85260009799998],[-73.52191162099996,-49.900512694999975],[-73.55151367199994,-49.91998290999993],[-73.54742431599993,-49.946105956999986],[-73.50677490199996,-49.963012693999985],[-73.56658935499996,-50.020385741999974],[-73.49932861299999,-50.04431152199993],[-73.48950195299994,-50.081604003999985],[-73.53491210899995,-50.111999511999954],[-73.52221679699994,-50.157775878999985],[-73.55352783199999,-50.18139648299996],[-73.54998779299996,-50.22821044899996],[-73.56542968799994,-50.27069091699997],[-73.51440429699994,-50.29107665999993],[-73.46990966799996,-50.34448242199994],[-73.48669433599997,-50.380798338999966],[-73.45709228399994,-50.39178466799996],[-73.40368652299998,-50.45190429599995],[-73.42779540999999,-50.48498535099998],[-73.36309814499998,-50.489501952999944],[-73.38641357399996,-50.51641845599994],[-73.28869628899997,-50.58599853499993],[-73.26690673699994,-50.63500976599994],[-73.23632812499994,-50.666503904999956],[-73.16931152299998,-50.68572997999996],[-73.22552490199996,-50.71929931599993],[-73.28442382799994,-50.786499022999976],[-73.25708007699996,-50.824890136999954],[-73.20989990199996,-50.82202148399995],[-73.13018798799999,-50.78308105399998],[-73.04199218799994,-50.761291503999985],[-73.00628662099996,-50.76202392599998],[-72.95520499199995,-50.73768741499998],[-72.93862252799994,-50.70626068499996],[-72.90546473899997,-50.69719493699995],[-72.89143781599995,-50.670176158999936],[-72.78982293399997,-50.632556878999935],[-72.73732012699998,-50.62488311699997],[-72.66808828099994,-50.65934770699994],[-72.62763744399996,-50.65643286799997],[-72.59599061299997,-50.68138746499994],[-72.54044209599994,-50.61859586899993],[-72.49037823599997,-50.60029781399993],[-72.41610526399995,-50.619916469999964],[-72.35945505699993,-50.61709204799996],[-72.33804615399998,-50.65046175899994],[-72.28584315899997,-50.66026474199998],[-72.30111929799995,-50.70677368699995],[-72.33702060599995,-50.71926109799995],[-72.34946994599994,-50.754267726999956],[-72.30135589499997,-50.78688625099994],[-72.26162841499996,-50.836547982999946],[-72.24836172999994,-50.877561800999956],[-72.26723415699996,-50.96485968099995],[-72.26566518699997,-51.035227694999946],[-72.37416944399996,-51.02320833199997],[-72.37618055599995,-51.07998333299997],[-72.40905983499994,-51.107489544999964],[-72.39574972499997,-51.14541964099993],[-72.36053294999994,-51.17016132699996],[-72.34816268599997,-51.203937129999986],[-72.31413639399995,-51.20946937699995],[-72.25865555599995,-51.244169442999976],[-72.27369988299995,-51.28595814299996],[-72.30756357899998,-51.30704215099996],[-72.35740424499994,-51.31794008199995],[-72.32607596099996,-51.34568091899996],[-72.30978617099998,-51.40145310599996],[-72.33826355999997,-51.42482893099998],[-72.35352661299999,-51.497087213999976],[-72.43100876399996,-51.55453775299998],[-72.44138916199995,-51.58526254299994],[-72.38435432299997,-51.59415348599998],[-72.33825555599998,-51.5841],[-72.28770881399998,-51.66955004999994],[-72.29878997599997,-51.69774775199994],[-72.19989606899998,-51.71295064399993],[-72.18419162699996,-51.735779589999936],[-72.13000594599998,-51.74329184399994],[-72.11042149399998,-51.769192772999986],[-72.07550256899998,-51.77367586199995],[-72.01065098199996,-51.820241014999965],[-71.94178242999999,-51.88480602499993],[-71.93885922299995,-51.908733085999984],[-72.03425433099994,-51.960549872999934],[-72.00427056499996,-51.97950665099995],[-71.96388167499998,-51.973345768999934],[-71.92253611099994,-51.99994166699997],[-71.29920579999998,-51.99948978899994],[-70.66828039199999,-51.999276538999936],[-69.9955,-52.00071666599996],[-69.48596413599995,-52.15143850599998],[-69.19001118899996,-52.150102199999935],[-69.07860833299998,-52.18511944399995],[-68.98687777799995,-52.203580554999974],[-68.83799722199996,-52.27773611099997],[-68.70973333299997,-52.28551388799997],[-68.586025,-52.30669999899993],[-68.57348055599994,-52.325177777999954],[-68.43541069636146,-52.33194783151209],[-68.43541069636146,-52.38569486172725],[-68.61868279752056,-52.64806334338661],[-68.63025787759378,-54.916779037735104],[-67.2721151490042,-54.9129206777107],[-66.81682866612474,-55.00552131829636],[-66.62391066490463,-55.14828063919924],[-66.11846550170793,-55.17143079934565],[-65.72877113924332,-55.37206552061457],[-65.70947933912132,-56.36752240691034],[-67.26439842895542,-56.36752240691034],[-67.26439842895542,-90],[-10,-90],[-10,-46]]]}},{"type":"Feature","properties":{"fir":"CBA","name":"Córdoba","icao":"SACF","layer":"FIR_CORDOBA"},"geometry":{"type":"Polygon","coordinates":[[[-64.48101118675004,-33.81874212981082],[-63.28348493179894,-34.0332480077612],[-62.315703052367795,-32.899215492683375],[-62.241707104710024,-32.92687817070385],[-62.157483516791594,-32.93614482463131],[-62.112660368535074,-32.932850014345995],[-62.03609035034191,-32.91304683169364],[-61.95320527910187,-32.862629370140176],[-61.91957075743926,-32.82981855104889],[-61.8816804391581,-32.77037468215128],[-61.86754021168361,-32.72287450053795],[-61.8712468732546,-32.63432647412004],[-61.8958206666326,-32.57268606503221],[-61.94496825338859,-32.5144777499916],[-61.983956841764844,-32.48448124801902],[-61.549179167864814,-31.930541268799995],[-61.55439595081657,-31.783922211103352],[-61.53728696199129,-31.648998013872568],[-61.51652708312329,-31.55263553832096],[-61.46562698334447,-31.448154015288967],[-61.39386189681745,-31.32906035185101],[-61.2897321634253,-31.204269412294703],[-61.17973354921244,-31.113456203805704],[-61.06523889179774,-31.042068647623875],[-60.91559959133968,-30.97013195639449],[-60.75020697920496,-30.916659931139062],[-60.19789724465879,-30.21270312111719],[-60.60638608610904,-30.13207047211253],[-61.383835962804625,-27.999423405206628],[-61.71120967656539,-27.10139433431468],[-61.81558531126627,-26.815078267036647],[-61.87544403571122,-25.65412803490038],[-61.94728256573319,-24.26083142060266],[-61.99945249974056,-23.249004029390942],[-62.34223530622771,-22.709538453090655],[-62.589403142029795,-22.32055004276071],[-62.62532135399994,-22.309878709999964],[-62.63664729599998,-22.23840556999994],[-62.64392527499996,-22.238507934999973],[-62.66022812699998,-22.250683425999966],[-62.68491626799994,-22.212339939999936],[-62.717073004999975,-22.203659650999953],[-62.74022575299995,-22.168868842999927],[-62.76671948799998,-22.151853123999956],[-62.78959608099996,-22.163917569999967],[-62.81298384599995,-22.09672416099994],[-62.799202744999945,-22.06004760199994],[-62.81424037099998,-22.042162168999937],[-62.81117567899997,-21.99876786899995],[-63.35038888899999,-21.999338888999944],[-63.665266653999936,-21.999342381999952],[-63.67484470699998,-22.03308852799995],[-63.709074886999986,-21.99933573499993],[-63.93145674099998,-21.99937691499997],[-63.96032109699996,-22.06291641699994],[-63.95854246199997,-22.08624735799998],[-63.98621450999997,-22.09367476899996],[-64.00898493399995,-22.165335334999952],[-64.03310232999996,-22.19682882199993],[-64.03600977999997,-22.243541538999978],[-64.06240805599998,-22.238380966999955],[-64.08048181099997,-22.294689219999952],[-64.11631021499994,-22.36217795699997],[-64.11542576299996,-22.40454684799994],[-64.19962787299994,-22.49124483399993],[-64.21697231999997,-22.543599055999948],[-64.24261018299995,-22.560144313999956],[-64.23737876099995,-22.61135181999998],[-64.25728789899995,-22.62854667299996],[-64.27177124599996,-22.70975429599997],[-64.26534265699996,-22.766659130999983],[-64.28760876899997,-22.79962730999995],[-64.28256944999998,-22.82428310399996],[-64.32884818499997,-22.856670245999965],[-64.33010004899995,-22.812186331999953],[-64.34474901899995,-22.738773376999973],[-64.39293015499999,-22.719560231999935],[-64.39675671999998,-22.68348219199993],[-64.43374247599996,-22.64871363499998],[-64.42542310099998,-22.59072815899998],[-64.40958029499996,-22.562950178999927],[-64.41264966199998,-22.537748244999932],[-64.44550951599996,-22.52288826599994],[-64.48300564099998,-22.47415929699997],[-64.49036029199993,-22.438440059999948],[-64.56574738099994,-22.372046848999958],[-64.56419005999999,-22.323469899999964],[-64.54685489899998,-22.316099073999965],[-64.54194502299998,-22.279037450999965],[-64.59832857799995,-22.24125653899995],[-64.61722518799996,-22.21196932099997],[-64.65104404699997,-22.189506104999964],[-64.73756375599999,-22.193492825999954],[-64.77915673499996,-22.177255384999967],[-64.81870813499995,-22.14474242999995],[-64.86260443199996,-22.12292753199995],[-64.88573279299999,-22.128980878999982],[-64.98734863599998,-22.09392467699996],[-64.99337222199995,-22.082433332999983],[-65.47503083899994,-22.089465804999975],[-65.48381197899994,-22.09576671399998],[-65.57439552099999,-22.076230476999967],[-65.58240930999995,-22.094111716999976],[-65.67530273499995,-22.11160304899994],[-65.71491466199996,-22.09735231299993],[-65.74826351099995,-22.109144739999977],[-65.80483539599999,-22.075247570999977],[-65.92477777799996,-21.93355],[-66.04816666599999,-21.919016666999937],[-66.04327777799995,-21.871938888999978],[-66.07630555599997,-21.834975],[-66.19413888899999,-21.79596388899995],[-66.22098335699997,-21.780856762999974],[-66.24110120199998,-21.78889337499993],[-66.23595156499994,-21.849637023999946],[-66.26030512899996,-21.90614051299997],[-66.28312183999998,-21.98259666699994],[-66.29239237999997,-22.034606803999964],[-66.28790312999996,-22.085775917999968],[-66.34775253299995,-22.128026509999927],[-66.62316666699996,-22.197380555999928],[-66.63825,-22.225486110999952],[-66.68625,-22.20953888899993],[-66.73927777799997,-22.238458331999936],[-66.76158333299998,-22.345908332999954],[-66.78430555499995,-22.401769443999967],[-66.78247222199997,-22.438075],[-66.92855555599994,-22.492227776999982],[-66.97294444399995,-22.540658332999953],[-67.02725,-22.540883332999954],[-67.01408333299997,-22.654813888999968],[-67.12775,-22.722113888999957],[-67.1805,-22.814127777999943],[-66.99050277799995,-23.000005555999962],[-67.13441390999998,-23.44848197799996],[-67.25413529899998,-23.823611135999954],[-67.32261666699998,-24.034158332999937],[-67.83210605299996,-24.23535006999998],[-68.24546429299994,-24.396111644999962],[-68.26900046699996,-24.435454612999933],[-68.29721676199995,-24.45552320799993],[-68.31023211699994,-24.48515449699994],[-68.39161076999994,-24.491619412999967],[-68.42058772899998,-24.56299498599998],[-68.46263232499996,-24.622967364999965],[-68.48814829699995,-24.63950591699995],[-68.51591331499998,-24.703886385999965],[-68.54427442799994,-24.724349763999953],[-68.54644469399994,-24.753055684999936],[-68.56868769799996,-24.793499279999935],[-68.53802120499995,-24.817341478999936],[-68.53319699199994,-24.85830206199995],[-68.48731845999998,-24.894437204999974],[-68.43254281699996,-24.90594552099998],[-68.42761778299996,-24.960889601999952],[-68.40597468199996,-25.03109916899996],[-68.37105847099997,-25.05344706699998],[-68.34424416399997,-25.110770486999968],[-68.41022130599998,-25.145263090999947],[-68.43780401799995,-25.125125711999942],[-68.50016390699994,-25.16164008499993],[-68.50946526399997,-25.180191692999983],[-68.50537021199995,-25.222782348999942],[-68.54845450699997,-25.262491440999952],[-68.53039725199994,-25.29209654799996],[-68.54605004399997,-25.311535737999975],[-68.51832660399998,-25.340869220999934],[-68.52333061099995,-25.37459808099993],[-68.58668966599998,-25.427672651999956],[-68.58917984699997,-25.448694905999957],[-68.53136967799998,-25.557412684999974],[-68.54605608199995,-25.62783090199997],[-68.47776140899998,-25.708077039999978],[-68.43890835999997,-25.89824373199997],[-68.41879820099996,-25.981930098999953],[-68.38143282599998,-26.177834019999977],[-68.55835536599994,-26.287368628999957],[-68.56639635599998,-26.319728710999982],[-68.58809214799999,-26.492428185999984],[-68.43258388699996,-26.70864353099995],[-68.36224898799998,-26.80281840899994],[-68.26261250399995,-26.918146062999938],[-68.31526620899996,-26.97486356099995],[-68.31501370899997,-26.998795514999983],[-68.29317158599997,-27.029292012999974],[-68.33679505999999,-27.033539572999928],[-68.42761932199994,-27.06735254499995],[-68.49336454999997,-27.13668170799997],[-68.54015375099993,-27.109873420999975],[-68.57617644499999,-27.177441430999977],[-68.60461037299996,-27.159439193999958],[-68.62989358499993,-27.164477621999936],[-68.67091914299994,-27.09905773199995],[-68.75141360999999,-27.112287377999962],[-68.78738165399994,-27.104369417999976],[-68.80799519899995,-27.145498842999928],[-68.82480371199995,-27.14746903799994],[-68.85583188299995,-27.18656834099994],[-68.86806088699996,-27.261734002999958],[-68.82851944899994,-27.28800026199997],[-68.84451234799997,-27.31322083599997],[-68.87017283199998,-27.31838526499996],[-68.89276865999994,-27.357755062999956],[-68.88916051799998,-27.37744013699995],[-68.91926773199998,-27.408774669999957],[-68.93450352699995,-27.444769365999946],[-68.98031766899999,-27.431906],[-68.98810445499998,-27.453068925999958],[-68.948235,-27.490791214999945],[-68.94300018499996,-27.52661637999995],[-68.99791265299996,-27.581412589999957],[-69.03851577599994,-27.594899375999944],[-69.05904818599998,-27.664307312999938],[-69.04401599899995,-27.699326333999977],[-69.08431454899994,-27.715202098999953],[-69.08945407599998,-27.78653517899994],[-69.10910934699996,-27.84646280499993],[-69.13162856599996,-27.872042008999983],[-69.12075918799997,-27.897654527999975],[-69.15658260899994,-27.934134884999935],[-69.18049096999994,-27.971575619999953],[-69.23380195899995,-27.965754036999954],[-69.26608667299996,-28.014735624999958],[-69.26331030899996,-28.046936270999936],[-69.29696737999996,-28.078949200999944],[-69.30728185999993,-28.128640433999976],[-69.33583990899996,-28.16357701399994],[-69.38122541999996,-28.18132951299998],[-69.39064947899993,-28.221865587999957],[-69.45201225499994,-28.184180070999957],[-69.47840287199995,-28.20700160499996],[-69.47449060899999,-28.236583803999963],[-69.50156758699995,-28.262631238999973],[-69.49913100199996,-28.283084823999957],[-69.52357414599999,-28.329656279999938],[-69.58276008099995,-28.35244169799995],[-69.60794956399997,-28.394069547999948],[-69.62740792499994,-28.37842049699998],[-69.65580903299997,-28.412541257999976],[-69.64018741899997,-28.442819078999946],[-69.67342402399998,-28.460112710999965],[-69.65778918099994,-28.50585636099993],[-68.9862162132092,-29.168423090632107],[-68.50785930327163,-29.63991363344138],[-67.2488920730003,-30.880809563756653],[-67.10918720679481,-31.111374247593687],[-66.61756510810564,-31.922732483210524],[-65.89597776006194,-33.11361840781236],[-65.72735039928757,-33.03659363715794],[-65.54997977892796,-32.9915645632586],[-65.36217559266485,-32.97838532211733],[-65.17876448678217,-32.997605048781686],[-65.00249213651766,-33.049223743251666],[-64.8421447026322,-33.12884832514684],[-64.70486094074396,-33.23483138932456],[-64.59723047142357,-33.36223072035685],[-64.52295995624206,-33.50696212632753],[-64.48585901959176,-33.66101166763637],[-64.48706883274338,-33.7838205728805],[-64.48101118675004,-33.81874212981082]]]}},{"type":"Feature","properties":{"fir":"EZE","name":"Ezeiza","icao":"SAEF","layer":"FIR_EZEIZA"},"geometry":{"type":"Polygon","coordinates":[[[-10,-46],[-10,-39],[-44.49612450665957,-39],[-45.00028354984813,-40.006629018435746],[-48.30303973073643,-38.701217210179664],[-51.718974472340506,-37.343074481590094],[-53.28289640223153,-36.72573687768574],[-55.01144169316371,-35.923197992610085],[-57.07437818621075,-34.899446466135366],[-57.810038830863434,-34.60106662424826],[-58.250979931499586,-34.21587669725576],[-58.338315734015495,-34.07557424123983],[-58.345,-34.03833333299997],[-58.38892399462339,-33.98053248002439],[-58.430742654178005,-33.85384654078541],[-58.43777284999999,-33.76041584099994],[-58.434870065999974,-33.72013523199996],[-58.459488548616726,-33.67167529687112],[-58.415364677204835,-33.34141480478818],[-58.39056428499998,-33.27967899899994],[-58.40285409166659,-33.24777496757768],[-58.39152151168906,-33.16295232350338],[-58.348131525999975,-33.11553068599994],[-58.274146944999984,-33.104906391999975],[-58.17679367799997,-33.07723563899998],[-58.13449685499995,-33.03756764599996],[-58.08493220599996,-33.00406078899994],[-58.08833423999994,-32.95682253999996],[-58.11707548399994,-32.909779441999945],[-58.119244323999965,-32.81863556999997],[-58.150086302999966,-32.73198125099998],[-58.14504660399996,-32.671126535999974],[-58.160841464999976,-32.56984578799995],[-58.18795542399994,-32.53111708599994],[-58.20412981099997,-32.46469443199993],[-58.18133457399995,-32.37384958399997],[-58.125904598999966,-32.34294932699993],[-58.10350792099996,-32.31016630299996],[-58.101930934999984,-32.25041416899995],[-58.17979641699998,-32.16536390599998],[-58.16885684499994,-32.095750393999936],[-58.14352881999997,-32.061882251999975],[-58.13829995399993,-32.00184250199993],[-58.17104700899995,-31.929834950999975],[-58.19162934599996,-31.919698447999963],[-58.20627492899996,-31.86990822699994],[-58.19527586999993,-31.855952686999956],[-58.09493637899993,-31.824557682999966],[-58.038147683999966,-31.75906383299997],[-58.033364967999944,-31.715008111999964],[-58.01285401399997,-31.68673416699994],[-57.980988783999976,-31.59043470699993],[-58.003574423999964,-31.532161429999974],[-58.07826570499998,-31.48881062299995],[-58.082394068999974,-31.457827067999972],[-58.05958396099999,-31.435129982999968],[-57.98049057199995,-31.390445023999973],[-57.99709921099998,-31.361058681999964],[-57.98090697899994,-31.31879945399993],[-57.93539449699995,-31.269781979999948],[-57.91305671199996,-31.211772653999958],[-57.916686777999985,-31.12259322999995],[-57.87132949199997,-31.07034383599995],[-57.86162129099995,-31.04174390399993],[-57.91489911999997,-30.92056442599994],[-57.889381223999976,-30.907028742999955],[-57.846973279999986,-30.919839166999964],[-57.81994855199997,-30.903742112999964],[-57.799266702999944,-30.85322393599995],[-57.80660496099995,-30.821025068999973],[-57.79739717099994,-30.78270737699995],[-57.81119065799999,-30.754196716999957],[-57.81739332363461,-30.68223561200771],[-57.81728287799996,-30.682356659999982],[-57.817407878918,-30.6822196594729],[-57.912110667793215,-30.66353874536388],[-59.5573938654972,-30.33899292716398],[-59.6942195481819,-30.312002921309887],[-60.19789724465879,-30.21270312111719],[-60.75020697920496,-30.916659931139062],[-60.91559959133968,-30.97013195639449],[-61.06523889179774,-31.042068647623875],[-61.17973354921244,-31.113456203805704],[-61.2897321634253,-31.204269412294703],[-61.39386189681745,-31.32906035185101],[-61.46562698334447,-31.448154015288967],[-61.51652708312329,-31.55263553832096],[-61.53728696199129,-31.648998013872568],[-61.55439595081657,-31.783922211103352],[-61.549179167864814,-31.930541268799995],[-61.983956841764844,-32.48448124801902],[-61.94496825338859,-32.5144777499916],[-61.8958206666326,-32.57268606503221],[-61.8712468732546,-32.63432647412004],[-61.86754021168361,-32.72287450053795],[-61.8816804391581,-32.77037468215128],[-61.91957075743926,-32.82981855104889],[-61.95320527910187,-32.862629370140176],[-62.03609035034191,-32.91304683169364],[-62.112660368535074,-32.932850014345995],[-62.157483516791594,-32.93614482463131],[-62.241707104710024,-32.92687817070385],[-62.315703052367795,-32.899215492683375],[-63.28348493179894,-34.0332480077612],[-64.48101118675004,-33.81874212981082],[-64.68113971387307,-35.00003565873925],[-64.83359569280262,-35.89993365901398],[-68.2500090006161,-37.36817373365285],[-68.49056521152386,-37.47155533219958],[-70.8809996987226,-38.49887006074167],[-70.91050920499998,-38.501889604999974],[-70.87323955199997,-38.511564084999975],[-70.84306084799994,-38.537524004999966],[-70.83380474399996,-38.60804171099994],[-70.88360390999998,-38.64183955799996],[-70.90642510099997,-38.675907904999974],[-70.88458776099998,-38.69799655099996],[-70.92850007499999,-38.763896802999966],[-71.03403353299996,-38.756899000999965],[-71.10890172699999,-38.77521887399996],[-71.14926452399999,-38.799428699999964],[-71.20676979099994,-38.81689822699997],[-71.23450280599997,-38.80403118099997],[-71.26803463999994,-38.82729618099995],[-71.26794374399998,-38.853171318999955],[-71.29653569899995,-38.87335401099995],[-71.32855838399996,-38.87467850499996],[-71.37546085899999,-38.90712847399993],[-71.42542350799994,-38.921641576999946],[-71.44102736699995,-38.97751248499998],[-71.42161030899996,-39.02469859599995],[-71.40067386799996,-39.03748466999997],[-71.41761087299994,-39.07090419899998],[-71.40736989299995,-39.09577947799994],[-71.42112552899994,-39.15037783699995],[-71.40194985099998,-39.16473470599993],[-71.38866683399993,-39.26534289399996],[-71.40163707699998,-39.351815545999955],[-71.44663073199996,-39.39638501799993],[-71.47294480499994,-39.49326664299997],[-71.51945021299997,-39.50661976699996],[-71.53438058399996,-39.53040786899993],[-71.50453337299996,-39.56007078999994],[-71.46765172699997,-39.56057047699994],[-71.47079006199994,-39.59123455899993],[-71.50174232399996,-39.637683136999954],[-71.54103198499996,-39.624339118999956],[-71.57663798099998,-39.63624988999993],[-71.61433086599999,-39.62234103199995],[-71.61800711499995,-39.59850600899995],[-71.68409880499996,-39.56776286899998],[-71.69876340299999,-39.58856801699994],[-71.69488055599999,-39.62454444399998],[-71.71621548699994,-39.65045827899996],[-71.68875154199998,-39.67691200199994],[-71.71137461499995,-39.72579399799997],[-71.68331386599993,-39.76229374999997],[-71.68449412799998,-39.855893857999945],[-71.63539394999998,-39.85882059499994],[-71.59249464699997,-39.90115834499994],[-71.61424053999997,-39.95621954799998],[-71.66491800499995,-39.99154026699995],[-71.68619152599996,-40.04381325799994],[-71.66627160899998,-40.07338830899994],[-71.67356818799993,-40.10372540999998],[-71.69604895699996,-40.116759532999936],[-71.81350407399998,-40.080791741999974],[-71.80014232199994,-40.135147710999945],[-71.82196029499994,-40.168543392999936],[-71.79984988499996,-40.18663598399996],[-71.83008009599996,-40.21589720299994],[-71.78757093899998,-40.26604164699995],[-71.73630544099996,-40.30636929399998],[-71.71552049299999,-40.27937309899994],[-71.67164789099996,-40.31109589999994],[-71.67362208399999,-40.34256941799998],[-71.69309909399993,-40.37372954899996],[-71.69262003699998,-40.40565025999996],[-71.73685312599997,-40.440819862999945],[-71.80846404699997,-40.406593363999946],[-71.84161792399993,-40.453225388999954],[-71.85840964899995,-40.554466736999984],[-71.88553947899999,-40.563047479999966],[-71.83761578499997,-40.60941310299995],[-71.86687867299997,-40.66316106199997],[-71.93522710599996,-40.70164165899996],[-71.96435833299995,-40.737],[-71.95319770599997,-40.76476236099995],[-71.92282793599998,-40.78297833899995],[-71.92752534499994,-40.833505782999964],[-71.86866311099993,-40.89183779399997],[-71.85716809299998,-40.96056487599998],[-71.90848642399999,-40.972247135999964],[-71.81794432699996,-41.06229352399998],[-71.85178977199996,-41.099303652999936],[-71.83936422999994,-41.150404944999934],[-71.87956402599997,-41.162754345999986],[-71.87398181199995,-41.20634130299993],[-71.85412759399998,-41.21536897599998],[-71.85089628599997,-41.259941029999936],[-71.88470841999998,-41.26000765499998],[-71.88258990799994,-41.324971302999984],[-71.91124489399994,-41.35674340899993],[-71.86634957799998,-41.393600558999935],[-71.86320761799993,-41.42201298699996],[-71.83563550099996,-41.43197649799998],[-71.84126365699996,-41.46032545099996],[-71.72714343888228,-41.55768974824554],[-71.475063917288,-41.68115726902641],[-71.13810047515688,-41.722313109286695],[-70.95547143400184,-41.69659070912402],[-70.80113703302575,-41.64257366878238],[-70.70081967239129,-41.59370110847329],[-70.63136919195205,-41.5448285481642],[-70.55677423148028,-41.475378067724954],[-70.50275719113864,-41.40849982730199],[-70.45902911086209,-41.33133262681394],[-63.11656998442463,-39.28382957386444],[-48.516535652086674,-46.005092736373044],[-10,-46]]]}},{"type":"Feature","properties":{"fir":"DOZ","name":"Mendoza","icao":"SAMF","layer":"FIR_MENDOZA"},"geometry":{"type":"Polygon","coordinates":[[[-67.10918720679481,-31.111374247593687],[-67.2488920730003,-30.880809563756653],[-68.50785930327163,-29.63991363344138],[-68.9862162132092,-29.168423090632107],[-69.65778918099994,-28.50585636099993],[-69.65165814299996,-28.531393426999955],[-69.66973897699995,-28.55491305399994],[-69.66325004399994,-28.581273377999935],[-69.69289790999994,-28.594007701999942],[-69.70179731199994,-28.64033159899998],[-69.73014595399997,-28.67829053099996],[-69.72873591799998,-28.738180530999955],[-69.70034261099994,-28.751569821999965],[-69.70495009799998,-28.80333419699997],[-69.72418605399997,-28.841324518999954],[-69.74382255899997,-28.849164994999967],[-69.74623778799997,-28.880818812999962],[-69.76434548699996,-28.89489094499993],[-69.75372547599994,-28.936496106999982],[-69.76785804699995,-28.98994500999993],[-69.78807652799998,-29.031901792999975],[-69.79639763299997,-29.082547131999945],[-69.78521154599997,-29.10313169899996],[-69.79239625799994,-29.13476740799996],[-69.83942525399993,-29.129298865999942],[-69.88318292599996,-29.143683816999953],[-69.95188761299994,-29.212844167999947],[-69.93656778899998,-29.24513176599993],[-69.94719656699993,-29.26308452099994],[-69.99824882899998,-29.28618696099994],[-70.01833013099997,-29.32049658099993],[-70.00988276099997,-29.394964949999974],[-69.98097432599997,-29.401358717999983],[-69.96659560699999,-29.427696814999933],[-69.98186933299996,-29.452232804999937],[-69.94743442299995,-29.490448137999977],[-69.95635261199993,-29.535064645999967],[-69.93302807399994,-29.57657848499997],[-69.94184269799996,-29.64568262599994],[-69.92226827599995,-29.683776],[-69.88153208499995,-29.708845915999973],[-69.87959491999999,-29.734355783999945],[-69.91343188799993,-29.806750259999944],[-69.89369598299999,-29.819232235999948],[-69.88900325999998,-29.905381464999948],[-69.90499447099995,-29.91917541099997],[-69.89801724399996,-29.95784062299998],[-69.92129085799996,-29.985154414999954],[-69.91578204499996,-30.026252803999967],[-69.96339728799995,-30.08735289899994],[-69.92986919699996,-30.119810232999953],[-69.90473985999995,-30.106124613999953],[-69.87174714699995,-30.111545323999962],[-69.80974360199997,-30.144839185999956],[-69.83500729299993,-30.219094534999954],[-69.86868856299998,-30.210824609999975],[-69.88790271099998,-30.223972430999936],[-69.87857597599998,-30.258317734999935],[-69.90237167699996,-30.29575693399994],[-69.90337092599998,-30.342922313999964],[-69.93468717399998,-30.358022268999946],[-69.95568849799997,-30.38553676099997],[-69.98832883199998,-30.37845807499997],[-70.01971540899996,-30.396727873999964],[-70.06826756399994,-30.39261215099998],[-70.10657762799997,-30.352063459999954],[-70.15466854499994,-30.346666453999944],[-70.11842433799995,-30.433296369999937],[-70.13627527599994,-30.458843187999946],[-70.19481472899997,-30.491629993999936],[-70.17938830999998,-30.51231482099996],[-70.19069305699998,-30.550688063999928],[-70.22104871599998,-30.582862530999932],[-70.24664013099994,-30.634207138999955],[-70.25909303999998,-30.69982389599994],[-70.24645144499993,-30.727132196999946],[-70.27380192099997,-30.75628758199997],[-70.27679399799996,-30.81242072899994],[-70.30485230299996,-30.873885921999943],[-70.32285441199997,-30.93364756899996],[-70.29411388899996,-30.97804722199993],[-70.30254348299997,-30.99411189899996],[-70.26908365199995,-31.042858130999946],[-70.32114923099994,-31.043192741999974],[-70.36673763299996,-31.106373321999968],[-70.36541835599996,-31.141908765999972],[-70.40815942199998,-31.16604542099998],[-70.43229607899997,-31.10171074899995],[-70.45611368599998,-31.084178727999983],[-70.51648437899996,-31.166313111999955],[-70.51345056599996,-31.196562006999955],[-70.52728118299996,-31.279685127999983],[-70.54504906299996,-31.307123286999968],[-70.53005845899997,-31.375651760999972],[-70.53380610899995,-31.409041824999974],[-70.56296751899998,-31.461366727999973],[-70.56711670499993,-31.50042009599997],[-70.55225994499995,-31.511161130999938],[-70.56725054899994,-31.583437256999957],[-70.53178170899997,-31.63804588499994],[-70.50675275499998,-31.652266881999935],[-70.51023271699995,-31.69088107099998],[-70.46967777999998,-31.696770235999963],[-70.45803329299997,-31.73287483799993],[-70.46848151599994,-31.74959702999996],[-70.46077710899993,-31.84128902599997],[-70.39160315999999,-31.879682155999944],[-70.34336186599995,-31.886394682999935],[-70.28005333299996,-31.88408586099996],[-70.24029267999998,-31.91788306199993],[-70.20931642299996,-31.960410787999933],[-70.20815550499998,-31.978002068999956],[-70.24900136899998,-31.99236620399995],[-70.24813761299998,-32.02344263899994],[-70.32111018999996,-32.050488256999984],[-70.35122524299999,-32.02632929099997],[-70.38823329699994,-32.04389640499994],[-70.33518908299999,-32.07043580399994],[-70.35011425199997,-32.08859751699998],[-70.31880136999996,-32.13196620499997],[-70.30095264499994,-32.20681504799995],[-70.32343141299998,-32.26593513699993],[-70.28442728799996,-32.29251133599996],[-70.26513293699998,-32.290984754999954],[-70.21818363199998,-32.33273322399998],[-70.22918093499999,-32.36368171699996],[-70.21743304299997,-32.38198726899998],[-70.23867184999995,-32.40506694499993],[-70.23664895199994,-32.42929234299993],[-70.14864607499999,-32.46589886299995],[-70.12338813799994,-32.53517330099993],[-70.12609582399995,-32.57662816699997],[-70.15011711499994,-32.58121156699997],[-70.15785497999997,-32.62987576699993],[-70.14285024899993,-32.679692459999956],[-70.14758098199997,-32.72843000599994],[-70.11571271399998,-32.76700931299996],[-70.10691135099995,-32.79407350399998],[-70.05586061399998,-32.831148809999945],[-70.05608936299996,-32.85748109999997],[-69.98963907399997,-32.89796736999995],[-70.01934367399997,-32.955873002999965],[-70.02199235899997,-33.00990060999993],[-70.08144831899995,-33.03015114899995],[-70.05173278299998,-33.134545327999945],[-70.06545903499995,-33.15742306499993],[-70.06439789599995,-33.20511202299997],[-70.02843922199997,-33.23179351599998],[-70.03839647799998,-33.26984675799997],[-70.00676657999998,-33.28648683399996],[-70.00236482099996,-33.32290237299998],[-69.91704768699998,-33.26638122199995],[-69.85995993199998,-33.283458149999944],[-69.84034519899996,-33.27235381799994],[-69.79912514799997,-33.28926629299997],[-69.76929314499995,-33.34228954799994],[-69.77663996799998,-33.38149544999993],[-69.81939790999996,-33.42986392399996],[-69.83316160599998,-33.51005829099995],[-69.87217983599999,-33.53946893999995],[-69.86532611799998,-33.583004743999936],[-69.87997729399996,-33.61965588999993],[-69.87143548899996,-33.654313900999966],[-69.88485477899997,-33.68322537299997],[-69.86460304899998,-33.71678228799993],[-69.90038780999998,-33.76102976599998],[-69.89951233099998,-33.84491114999997],[-69.87410967699998,-33.86025369199996],[-69.85556460699996,-33.892374691999976],[-69.88967268199997,-33.91920891099994],[-69.90618426299994,-33.96330167799994],[-69.85543116899998,-33.96557163799997],[-69.83862133999997,-34.00742698099998],[-69.82160307999999,-34.01655495799997],[-69.85381916299997,-34.05717445199997],[-69.83401077799994,-34.08786251799995],[-69.87302900799995,-34.13022251599995],[-69.81525804899997,-34.17786534199996],[-69.79667972999994,-34.20736403199993],[-69.80719853399995,-34.24835104099998],[-69.94089569499994,-34.279425180999965],[-69.96891014799996,-34.25048618999995],[-70.00293119899999,-34.261594472999946],[-70.03221807899996,-34.29228922799996],[-70.01537000099995,-34.33218931399995],[-70.02401098399997,-34.374215783999944],[-70.01293364299994,-34.41208914999993],[-70.04180843699999,-34.42340839399998],[-70.05362275799996,-34.44785843899996],[-70.13004444499995,-34.50068448799993],[-70.15695595699998,-34.54761124199996],[-70.19487390299997,-34.580173585999944],[-70.22425612099994,-34.64089229099994],[-70.21389876099994,-34.67732049399996],[-70.24755771899999,-34.69372336599997],[-70.25857101799994,-34.72855606799993],[-70.30626344099994,-34.747333880999975],[-70.30817866099994,-34.77018849199993],[-70.25307289099999,-34.79329557999995],[-70.26258197899995,-34.833153365999976],[-70.32003942599994,-34.93184274299995],[-70.33157757099997,-34.98433533499997],[-70.36308622499996,-35.00552627099995],[-70.37634558499997,-35.05091863599995],[-70.36118579099997,-35.13549903099994],[-70.37771334299998,-35.173054598999954],[-70.47208584999998,-35.20390962399995],[-70.54419779499995,-35.203538428999934],[-70.58368569399994,-35.26715972299996],[-70.56629204199999,-35.29949447699994],[-70.43500508299996,-35.31801548799996],[-70.42019797799998,-35.348308197999984],[-70.45184010199995,-35.39109724299993],[-70.43259956399999,-35.44659473899998],[-70.44262726799997,-35.46713906999997],[-70.38150706599998,-35.51288630499994],[-70.41355905599994,-35.52849454899996],[-70.40996549899995,-35.559156282999936],[-70.38469625799996,-35.60511049499996],[-70.41814640299998,-35.62980985599995],[-70.39766580299994,-35.68769882199996],[-70.37212009199999,-35.71054337199996],[-70.35880700099995,-35.75471904199998],[-70.37874162599996,-35.78785123799997],[-70.33517000499995,-35.797064071999955],[-70.31650376099998,-35.81843170299993],[-70.37746079299995,-35.84882217899997],[-70.37954652999997,-35.86526071499998],[-70.42196554899994,-35.87658585499997],[-70.42510147099995,-35.91304093799994],[-70.36871986699998,-35.92254150599996],[-70.42076090799998,-35.97621539599993],[-70.37852842999996,-35.98953763399993],[-70.37255101299996,-36.04346288199997],[-70.41054384999995,-36.05640992899998],[-70.42533721699994,-36.098449451999954],[-70.42098732099998,-36.15592572699995],[-70.49073979299999,-36.178989049999984],[-70.51026046099997,-36.155916583999954],[-70.56835305099997,-36.13263001099995],[-70.57151535599996,-36.176017102999936],[-70.59970238799997,-36.19231548899995],[-70.64022192399995,-36.24362138199996],[-70.66966451499997,-36.24505948299998],[-70.68766755899998,-36.310740986999974],[-70.71114272299997,-36.348737417999985],[-70.67938584099994,-36.376939979999975],[-70.68808936999994,-36.40683074999998],[-70.71252935399997,-36.42742500399993],[-70.77318205199998,-36.428830312999935],[-70.81605953699994,-36.39569920699995],[-70.85166464799994,-36.41605736599996],[-70.88839162799997,-36.39890621099994],[-70.89445305399994,-36.452050732999965],[-70.93398983399999,-36.49166259799995],[-70.97495049799994,-36.502119178999976],[-71.01803027999995,-36.47407768599993],[-71.05449648799998,-36.57175476499998],[-71.04016130499997,-36.64928786599995],[-71.01200058199998,-36.66391177999998],[-71.01547332599995,-36.699260736999975],[-71.07619241199995,-36.708112331999985],[-71.08499958199997,-36.679087341999946],[-71.11955095099995,-36.69734764999998],[-71.11140129699999,-36.728296505999936],[-71.13336589799997,-36.809700212999985],[-71.17979176499995,-36.84094494799996],[-71.16285000299996,-36.86148445699996],[-71.12745314099993,-36.857582140999966],[-71.14383882299995,-36.92946042199998],[-71.08820526799997,-36.92868448499996],[-71.10596005299993,-36.97088600999996],[-71.16899532399998,-36.99622060299998],[-71.14366580699993,-37.03256266599993],[-71.14146480499994,-37.06980123099993],[-71.09229126099996,-37.11465407099996],[-71.13390517799996,-37.14255134699994],[-71.13612374399997,-37.16572318499993],[-71.11421275899994,-37.203852608999966],[-71.16268531399999,-37.22535048399993],[-71.16147400999995,-37.246837967999966],[-71.18860164999995,-37.27602729199998],[-71.21824611199997,-37.27279549599996],[-71.19586257499998,-37.38469013699995],[-71.15356694199994,-37.40066667199994],[-71.14208842199997,-37.440831973999934],[-71.12006413099994,-37.45807830699994],[-71.11829857099997,-37.491514491999965],[-71.13777905899997,-37.544854870999984],[-71.12587223699995,-37.58064672299997],[-71.14620528499995,-37.60805910499994],[-71.17775638999996,-37.61419965199997],[-71.20634316899998,-37.648015846999954],[-71.21272772899994,-37.68818180899996],[-71.17950427699998,-37.74072273999997],[-71.15623314799996,-37.757188611999936],[-71.17082307799996,-37.779537852999965],[-71.15337303599995,-37.80847075499997],[-71.16080825699999,-37.84009379199995],[-71.10791759699998,-37.89104994799993],[-71.11341177299994,-37.95264705599993],[-71.06159686499996,-37.971443403999956],[-71.06264414799995,-38.017487684999935],[-71.04506119999996,-38.054825791999974],[-70.99252682499997,-38.08247370099997],[-70.98261104099998,-38.10414012099994],[-71.04098254999997,-38.12518930799996],[-70.99784314999994,-38.169497745999934],[-70.99696340599996,-38.20141077499994],[-71.02091962199995,-38.21518660899994],[-71.00898611099996,-38.26168888899997],[-70.99703338999996,-38.35551256799994],[-70.97727434599994,-38.44286270099997],[-70.95943198699996,-38.44350184399997],[-70.91050920499998,-38.501889604999974],[-70.8809996987226,-38.49887006074167],[-68.49056521152386,-37.47155533219958],[-68.2500090006161,-37.36817373365285],[-64.83359569280262,-35.89993365901398],[-64.68113971387307,-35.00003565873925],[-64.48101118675004,-33.81874212981082],[-64.48706883274338,-33.7838205728805],[-64.48585901959176,-33.66101166763637],[-64.52295995624206,-33.50696212632753],[-64.59723047142357,-33.36223072035685],[-64.70486094074396,-33.23483138932456],[-64.8421447026322,-33.12884832514684],[-65.00249213651766,-33.049223743251666],[-65.17876448678217,-32.997605048781686],[-65.36217559266485,-32.97838532211733],[-65.54997977892796,-32.9915645632586],[-65.72735039928757,-33.03659363715794],[-65.89597776006194,-33.11361840781236],[-66.61756510810564,-31.922732483210524],[-67.10918720679481,-31.111374247593687]]]}},{"type":"Feature","properties":{"fir":"SIS","name":"Resistencia","icao":"SARR","layer":"FIR_RESISTENCIA"},"geometry":{"type":"MultiPolygon","coordinates":[[[[-57.817407878918,-30.6822196594729],[-57.84336938499996,-30.659550000999957],[-57.84793794999996,-30.61852809399994],[-57.887304282999935,-30.587569498999983],[-57.885459011999956,-30.512500478999982],[-57.86274566399993,-30.482115781999937],[-57.794115473999966,-30.44664886399994],[-57.767822784999964,-30.41832233699995],[-57.69328640799995,-30.38152183099993],[-57.646632315999966,-30.34574544399993],[-57.61524003999995,-30.254466029999946],[-57.65334715499995,-30.19704150499996],[-57.62400976899994,-30.17439302699995],[-57.58812166699994,-30.179452201999936],[-57.549040401999946,-30.166020603999982],[-57.48726107699997,-30.128790696999943],[-57.458928140999944,-30.10263799699993],[-57.44588553899996,-30.07163952199994],[-57.40616562099996,-30.030127697999944],[-57.35305750599997,-30.00849646299997],[-57.326044241999966,-29.96501264099993],[-57.32883012999997,-29.89471727299997],[-57.28946518999999,-29.825349390999975],[-57.22994901399994,-29.77916386199996],[-57.169895817999986,-29.781163635999974],[-57.11952610499998,-29.763675361999958],[-57.02100886599993,-29.682262022999964],[-57.00586960099997,-29.65612082599995],[-56.96723780899998,-29.637107467999954],[-56.971204942999975,-29.607736270999965],[-56.88493225299993,-29.52339302799993],[-56.824684299999944,-29.491270303999954],[-56.77717173999997,-29.433488222999983],[-56.77288780599997,-29.390835377999963],[-56.758101032999946,-29.37414133599998],[-56.70394449999998,-29.362244030999932],[-56.64958392099999,-29.27241481799996],[-56.65321439099995,-29.22157029699997],[-56.643411011999945,-29.196062474999962],[-56.60549837399998,-29.162404421999952],[-56.59150306999999,-29.12430982799998],[-56.54076106399998,-29.11366173999994],[-56.500778243999946,-29.092410137999934],[-56.42522239899995,-29.08182960599993],[-56.398705390999964,-29.021207449999963],[-56.414054765999936,-29.00402807399996],[-56.39047889699998,-28.955130698999938],[-56.33754727799993,-28.934591676999958],[-56.30194884699995,-28.901110977999963],[-56.30121083299997,-28.815520981999953],[-56.28535366199998,-28.78930310499993],[-56.25915490899996,-28.77831968499993],[-56.191854330999945,-28.773620885999946],[-56.11857260199997,-28.68168136099996],[-56.05168295499993,-28.62568816099997],[-56.01105552399997,-28.608222169999976],[-56.002271288999964,-28.57848938099994],[-56.02451711499998,-28.54528058799997],[-56.02202141799995,-28.51987719899995],[-55.98614040199993,-28.497702757999946],[-55.954806893999944,-28.49528741399996],[-55.88120759599997,-28.46956005499993],[-55.90266623699995,-28.412229741999965],[-55.87830294599996,-28.361161659999937],[-55.851244863999966,-28.354967530999943],[-55.739001877999954,-28.376652428999932],[-55.71892794599995,-28.420163704999936],[-55.691695160999984,-28.41760543999993],[-55.669942075999984,-28.33076275999997],[-55.734864855999945,-28.284864221999953],[-55.764983488999974,-28.27734874799995],[-55.76891179599994,-28.240621801999964],[-55.69162165199998,-28.21721331699996],[-55.626610067999934,-28.170933464999962],[-55.61160819099996,-28.118489531999955],[-55.56554182599996,-28.16269991699994],[-55.536051389999955,-28.119025720999957],[-55.51309850599995,-28.113873377999937],[-55.48343072899996,-28.077633429999935],[-55.44775128699996,-28.09905803999993],[-55.422780553999985,-28.060974399999964],[-55.38160156099997,-28.039614754999945],[-55.36985845299995,-28.014178801999947],[-55.383560648999946,-27.981194631999983],[-55.33654249899996,-27.96139751499993],[-55.33221187999993,-27.93270121599994],[-55.31013048199998,-27.921612926999956],[-55.26920375299994,-27.931178359999933],[-55.22841565899995,-27.88094330699994],[-55.197201262999954,-27.857129534999956],[-55.17145102499995,-27.86107704899996],[-55.13980866299994,-27.89415394799994],[-55.12520160899999,-27.85879985799994],[-55.08855507199996,-27.842329286999927],[-55.032732917999965,-27.85674882099994],[-55.03254256099996,-27.824864042999934],[-55.08304179399994,-27.79705423599995],[-55.05365310499997,-27.770424097999978],[-55.008277110999984,-27.797621756999945],[-54.982128745999944,-27.77071398099997],[-54.93624121199997,-27.77186784299994],[-54.902814346999946,-27.72102436499995],[-54.90690701999995,-27.64340634699994],[-54.89029838199997,-27.627416368999945],[-54.85617691099998,-27.62808261799995],[-54.84180249599996,-27.611659318999955],[-54.828358133999984,-27.56078440699997],[-54.79250253499998,-27.541089523999972],[-54.78388888599994,-27.580017504999944],[-54.742962156999965,-27.56226672599996],[-54.68366598799997,-27.574973048999937],[-54.645784968999976,-27.54175577199993],[-54.61399536999994,-27.531524090999937],[-54.59209859699996,-27.478357977999963],[-54.57156072199996,-27.45439520499997],[-54.519840097999975,-27.50235189899996],[-54.50427842299996,-27.481829047999952],[-54.449312873999986,-27.47611834099996],[-54.443566475999944,-27.459450215999937],[-54.464731780999955,-27.423758301999953],[-54.39645314799998,-27.412693806999982],[-54.35333731399999,-27.466267371999947],[-54.30847852599993,-27.422990924999965],[-54.29452298699994,-27.44469160899996],[-54.26718297999997,-27.43491202399997],[-54.26600514699999,-27.40236099799995],[-54.21475155699994,-27.383515667999973],[-54.20734981999993,-27.33199177299997],[-54.19169457999993,-27.30374423799998],[-54.15886836799996,-27.29202439499994],[-54.10181747199994,-27.30318146199994],[-54.07709057399995,-27.296390801999962],[-54.05513431199995,-27.263660607999952],[-54.02695860299997,-27.255110791999982],[-54.00532299599996,-27.197083548999956],[-53.96272062899993,-27.19760880499996],[-53.94813344199997,-27.151546270999972],[-53.91063403299995,-27.176806728999964],[-53.87831599599997,-27.127476144999946],[-53.84746461199995,-27.157940244999963],[-53.77716812699998,-27.101112601999944],[-53.80465859099996,-27.076630631999933],[-53.77257750799998,-27.053984111999966],[-53.732604941999966,-27.00811048399993],[-53.740247770999986,-26.990378740999972],[-53.709895365999955,-26.937497598999983],[-53.68141797699997,-26.91618714699996],[-53.66160182599998,-26.863629611999954],[-53.69903550499998,-26.82633869899996],[-53.728664554999966,-26.740392566999958],[-53.72504777399996,-26.691366152999933],[-53.73566016999996,-26.645385448999946],[-53.71999379899995,-26.561485652999977],[-53.74078076999996,-26.547227921999934],[-53.730833238999935,-26.51071107699994],[-53.702369130999955,-26.489799630999983],[-53.714682841999945,-26.469859748999966],[-53.68948434999999,-26.44369757499993],[-53.705450532999976,-26.41638136199998],[-53.70016812999995,-26.362950565999938],[-53.66394847799995,-26.314438029999963],[-53.64204247799995,-26.268262456999935],[-53.64113888899993,-26.21555],[-53.710402777999946,-26.13053055499995],[-53.744292506999955,-26.116237481999974],[-53.74465568499994,-26.044303342999967],[-53.81788252399997,-25.98998181299993],[-53.83996130299994,-25.953653867999947],[-53.81995218499998,-25.89746120899997],[-53.83960764999995,-25.882652053999948],[-53.84279502199996,-25.838959475999957],[-53.82192447299997,-25.79903194999997],[-53.83710200899998,-25.74857038899995],[-53.866426486999956,-25.740665817999968],[-53.85037940199993,-25.701388055999928],[-53.862073857999974,-25.65898348299993],[-53.88970558699998,-25.656879642999968],[-53.91271692199996,-25.636155763999966],[-54.02834540599997,-25.566160577999938],[-54.05434606499995,-25.58376104499996],[-54.08337194499995,-25.560880501999975],[-54.08885490799997,-25.609567366999954],[-54.10456470299994,-25.614587834999952],[-54.12311829899994,-25.562071754999977],[-54.09400824399995,-25.514807605999977],[-54.10429050199997,-25.494444434999934],[-54.16580527799994,-25.542844443999968],[-54.19573034399997,-25.534656619999964],[-54.20180064799996,-25.55979826899994],[-54.253410445999975,-25.59660963099998],[-54.28038609799995,-25.55888327699995],[-54.32147793799999,-25.56693901899996],[-54.34202157399994,-25.601320963999967],[-54.370755600999985,-25.59482984799996],[-54.388960261999955,-25.62517110899995],[-54.42200963399995,-25.654928772999938],[-54.44838378099996,-25.66095338799994],[-54.500018084999965,-25.614583641999957],[-54.55447574699997,-25.58784561799996],[-54.59334493299997,-25.593259951999983],[-54.59663613599997,-25.623463484999945],[-54.583673905999945,-25.666262803999928],[-54.65007080699996,-25.66454931399994],[-54.65647357599994,-25.690912707999928],[-54.63220572399996,-25.762423442999932],[-54.58885608799994,-25.82255218199998],[-54.58870104399995,-25.841015158999937],[-54.622013498999934,-25.91239898799995],[-54.606737358999965,-25.960987581999973],[-54.62372670999997,-25.98538895599995],[-54.655528206999975,-25.979321329999948],[-54.67879933499995,-25.994740236999974],[-54.676657820999935,-26.01786859699996],[-54.643714182999986,-26.088467204999972],[-54.649067969999976,-26.11652105099995],[-54.67408800299995,-26.142861684999957],[-54.65435037399993,-26.180373887999963],[-54.618408614999964,-26.209712641999943],[-54.623334098999976,-26.223810947999937],[-54.67298155299994,-26.255219833999945],[-54.67758580999998,-26.275314381999976],[-54.649353504999965,-26.29854981799997],[-54.65145932799999,-26.32000065999995],[-54.69550315199996,-26.375787122999952],[-54.69914372699998,-26.432465883999953],[-54.712492502999964,-26.456879153999978],[-54.78426894499995,-26.512772691999942],[-54.80650500799993,-26.563669363999963],[-54.78762398499998,-26.59404318399993],[-54.78477788999999,-26.62326161699997],[-54.81242139799997,-26.66784223199994],[-54.831506771999955,-26.67409811699997],[-54.88029725699994,-26.655998833999945],[-54.94215786199993,-26.682379814999933],[-54.94424190899997,-26.75272909699993],[-54.97596008199997,-26.789886123999963],[-55.02670338499996,-26.78969826599996],[-55.057542883999986,-26.798984765999933],[-55.088680213999965,-26.833060930999977],[-55.129762693999965,-26.853619626999944],[-55.15028989199993,-26.89595389899995],[-55.13012870399996,-26.935921880999956],[-55.13775326599995,-26.951221832999977],[-55.20312116799994,-26.96987659299998],[-55.25491735199995,-26.93759928399993],[-55.30981419099999,-26.964386908999984],[-55.369156902999976,-26.964371349999965],[-55.41981118999996,-26.99300442699996],[-55.45372044299995,-27.045567819999974],[-55.45112272099993,-27.10208647999997],[-55.481011,-27.111540935999983],[-55.549072913999964,-27.09817253899996],[-55.56467784899996,-27.10742367299997],[-55.558324047999974,-27.149765400999968],[-55.574793098999976,-27.168775971999935],[-55.60498636099993,-27.160083973999974],[-55.618863061999946,-27.190582217999975],[-55.611594313999944,-27.212998425999956],[-55.57992697099996,-27.23638041399994],[-55.57214991699993,-27.263879663999944],[-55.60229234899998,-27.292039708999937],[-55.58617911099998,-27.316489133999937],[-55.59614186999994,-27.33915949599998],[-55.68331601699998,-27.37875638199995],[-55.74329589699994,-27.445954177999965],[-55.78711170699995,-27.440210342999933],[-55.83890789099996,-27.407475560999956],[-55.86844035699994,-27.364168054999936],[-55.896346249999965,-27.34271762399993],[-55.978945659999965,-27.35512024299993],[-56.03241924799994,-27.316387473999953],[-56.08680778299998,-27.30855959099995],[-56.149380012999984,-27.32792597599996],[-56.18155565999996,-27.348766440999952],[-56.23619834699997,-27.401426742999945],[-56.29358587599995,-27.419217384999968],[-56.28433474099995,-27.461914926999953],[-56.29368753699998,-27.494141404999937],[-56.33836746399999,-27.52402968299998],[-56.352244164999945,-27.577503270999955],[-56.37527033899994,-27.60185103499998],[-56.42223763399994,-27.603833420999933],[-56.43611433499996,-27.58817765599997],[-56.49848324399994,-27.551783084999954],[-56.50631112599996,-27.527028676999976],[-56.568324221999944,-27.44981728999994],[-56.60700616099996,-27.431975817999955],[-56.64960204199997,-27.460796657999936],[-56.68884311599999,-27.454544517999977],[-56.718782224999984,-27.46455810699996],[-56.71705399099994,-27.496937076999927],[-56.67928699899994,-27.546090078999953],[-56.689198928999986,-27.579028182999934],[-56.747196421999945,-27.60500252099996],[-56.79589195099999,-27.58695772599998],[-56.84926387799993,-27.606298695999953],[-56.90314410899998,-27.585153246999937],[-56.94223269099996,-27.558314791999976],[-56.96566550899996,-27.502045532999944],[-57.036472264999986,-27.48059509999996],[-57.10178933699996,-27.48466153399994],[-57.119248599999935,-27.49340347699996],[-57.23069524799996,-27.468802446999973],[-57.27964492899997,-27.430272998999953],[-57.32651056399993,-27.409839175999934],[-57.395690746999946,-27.42081854299994],[-57.43900487199994,-27.43828165599996],[-57.507517640999936,-27.444200528999943],[-57.60978841799994,-27.39570832299995],[-57.65243512899997,-27.36719246499996],[-57.67063241499994,-27.34081148399997],[-57.70534958199994,-27.32556236199997],[-57.73076478499996,-27.336033424999982],[-57.79495041399997,-27.34148566899995],[-57.82724089699997,-27.32754474799998],[-57.856010906999984,-27.283627276999937],[-57.88173109199994,-27.269953896999937],[-57.93230734699995,-27.26410840099993],[-57.976326477999976,-27.274020329999928],[-58.00987454699998,-27.25938117299995],[-58.060755782999934,-27.260651932999963],[-58.088153371999965,-27.27503693799997],[-58.19698127199996,-27.279967486999965],[-58.24313528099998,-27.26202435299996],[-58.29086503299993,-27.27498610799995],[-58.41684898899996,-27.290096636999976],[-58.47659933799997,-27.27094508899995],[-58.546443704999945,-27.293979735999983],[-58.59031034599997,-27.320106564999946],[-58.61620870999997,-27.299704987999974],[-58.592598049999935,-27.254963758999963],[-58.61263211199997,-27.21044888199998],[-58.66162997299995,-27.18657812899994],[-58.65220730699997,-27.130556097999943],[-58.60989097299995,-27.110739946999956],[-58.55489686899995,-27.10891252099998],[-58.553012336999984,-27.03473044499998],[-58.50287233499995,-27.033702517999927],[-58.51943338299998,-27.001950989999955],[-58.470435520999956,-26.981392446999962],[-58.48431128599998,-26.957246272999953],[-58.45964228699995,-26.929653446999964],[-58.380320574999985,-26.887965289999954],[-58.37455276199995,-26.866378818999976],[-58.32527162699995,-26.869673874999933],[-58.31897318399996,-26.846346307999966],[-58.33680499199994,-26.817266743999937],[-58.28552284899996,-26.796765308999966],[-58.29585922699994,-26.76290081999997],[-58.25976756299997,-26.76227264199997],[-58.24543368999997,-26.74742480599997],[-58.25628403199994,-26.718471523999938],[-58.263479521999955,-26.651713365999967],[-58.245662117999984,-26.64229070099998],[-58.20191810699998,-26.654168969999944],[-58.208713846999956,-26.614707987999964],[-58.19409443899997,-26.59780429799997],[-58.20089017999999,-26.558400421999977],[-58.22264797099996,-26.54246755199995],[-58.20848541899994,-26.50494821099994],[-58.223752040999955,-26.463745463999942],[-58.18391034599995,-26.449352104999946],[-58.21849819099998,-26.41782900499993],[-58.21713000099999,-26.38548499199993],[-58.15966601799994,-26.34881749799996],[-58.15550671899996,-26.310179809999966],[-58.16798461299999,-26.285880753999948],[-58.158243099999936,-26.260213506999946],[-58.109535532999985,-26.240949391999948],[-58.10411749999997,-26.223764924999955],[-58.14034717399994,-26.200067871999977],[-58.118127765999986,-26.18447050599997],[-58.12025585799995,-26.160825957999975],[-58.09092814799993,-26.116279911999982],[-58.03696673099995,-26.111190243999943],[-57.94641277399995,-26.06601855699995],[-57.91951534599997,-26.032325389999983],[-57.858182359999944,-26.01016784799998],[-57.85132951199995,-25.991436731999954],[-57.893702952999945,-25.96425376899998],[-57.87388680199996,-25.929132924999976],[-57.84190684599997,-25.921195041999965],[-57.858239466999976,-25.889557727999943],[-57.85846874799995,-25.858001472999945],[-57.81626577399999,-25.84741271599995],[-57.796506729999976,-25.810236016999966],[-57.82751586499995,-25.75632694899997],[-57.772635976999936,-25.756840910999983],[-57.72987504499997,-25.720974147999982],[-57.76618365899998,-25.691534476999948],[-57.73788383999994,-25.64818231399994],[-57.68246392299994,-25.662157399999955],[-57.670699867999986,-25.647252455999933],[-57.67829510699994,-25.606478011999968],[-57.65602335199998,-25.59699823899996],[-57.61079455799995,-25.610646826999982],[-57.60456988799996,-25.568787348999933],[-57.569791685999974,-25.544973703999972],[-57.57866167999998,-25.507299272999944],[-57.56060157199994,-25.45271443699994],[-57.596517791999986,-25.401063902999965],[-57.64235096999994,-25.383354762999943],[-57.69928091199995,-25.31814645299994],[-57.71147326999994,-25.273736192999934],[-57.751552910999976,-25.22800295299993],[-57.749249592999945,-25.196289496999952],[-57.778850087999956,-25.153306911999948],[-57.82398370299995,-25.139782056999934],[-57.84825420599998,-25.09742764999993],[-57.886687259999974,-25.07661212599993],[-57.984983745999955,-25.083574428999952],[-58.01098173699995,-25.040672745999927],[-58.07057295799996,-25.041429414999982],[-58.09498622899997,-25.009149647999948],[-58.131163553999954,-25.012261982999973],[-58.150722722999944,-24.97457131999994],[-58.18685721799994,-24.970616654999958],[-58.235574302999964,-24.926998755999932],[-58.25507993399998,-24.935719479999932],[-58.32939407099997,-24.99807682499994],[-58.348372651999966,-24.974320285999966],[-58.39291616199995,-24.951610710999944],[-58.44073380999998,-24.879313167999953],[-58.46915409199994,-24.86368486699996],[-58.52641344199998,-24.85072156399997],[-58.54999865899998,-24.82808813099996],[-58.58365375599993,-24.82155889099994],[-58.611274537999975,-24.83111480599996],[-58.67350220299994,-24.831514555999945],[-58.74014614699996,-24.780803481999953],[-58.80844619599998,-24.77160924499998],[-58.84619396499994,-24.737459220999938],[-58.870826145999956,-24.728245946999948],[-58.97139438199997,-24.662828972999932],[-59.023882912999966,-24.660098540999968],[-59.05740356999996,-24.631009630999984],[-59.11614651299993,-24.622800489999975],[-59.153385077999985,-24.599689974999933],[-59.18586472099997,-24.563462680999976],[-59.24127641899997,-24.546062872999983],[-59.25781367299999,-24.519561624999938],[-59.296509656999945,-24.513493998999934],[-59.351855919999934,-24.48168060699993],[-59.372943893999945,-24.42344329799994],[-59.41152923299995,-24.412571540999977],[-59.44218263999994,-24.389421764999952],[-59.47590833299995,-24.33113888899993],[-59.50729444399997,-24.31483888799994],[-59.75671666699998,-24.16963055599996],[-60.03900555499996,-24.011655555999937],[-60.07286111099995,-24.01123055499994],[-60.133969443999945,-24.03668610999995],[-60.192252777999954,-24.044894443999965],[-60.2803,-24.04361388799998],[-60.3355,-24.021599998999932],[-60.380502777999936,-24.01908611099998],[-60.389508184999954,-23.994954319999977],[-60.443013888999985,-23.962402777999955],[-60.487799920999976,-23.951538591999963],[-60.50966113299995,-23.970864766999966],[-60.55894373599995,-23.955744639999978],[-60.58172231599997,-23.96099848999995],[-60.58851805699999,-23.919236568999963],[-60.69123208599996,-23.902941304999956],[-60.74234539799994,-23.872934640999972],[-60.80746172099998,-23.867830674999936],[-60.846002813999974,-23.871587473999966],[-60.929586110999935,-23.80253333299993],[-60.98680912899994,-23.812866534999955],[-61.020403413999986,-23.772624666999945],[-61.06093936099995,-23.70500137299996],[-61.09931666699998,-23.65823610999996],[-61.09049879199995,-23.63905413899994],[-61.108205160999944,-23.59869209699997],[-61.14572081799997,-23.580517423999936],[-61.17864060699998,-23.547152782999945],[-61.228225237999936,-23.549568230999967],[-61.24690088299997,-23.54080076799994],[-61.279398544999935,-23.49047006899997],[-61.32535286399997,-23.466261390999932],[-61.38466449799995,-23.447245902999953],[-61.419040948999964,-23.44745910699993],[-61.44724765799998,-23.42226254999997],[-61.49412175499998,-23.424435503999973],[-61.51861312899996,-23.38569738399997],[-61.52980973899997,-23.345701927999983],[-61.569083036999984,-23.334373108999955],[-61.60812270099996,-23.283206895999967],[-61.64771780799998,-23.282328629999938],[-61.73694991599996,-23.23171734799996],[-61.735156260999986,-23.198795738999934],[-61.75575466899994,-23.170537158999934],[-61.793434368999954,-23.165227345999938],[-61.81688093799994,-23.145351956999946],[-61.86056184399996,-23.08571901399995],[-61.93472717099996,-23.067686911999942],[-61.95161106099994,-23.03376076099994],[-61.98714834799995,-23.017048632999945],[-61.99594590399994,-22.951531600999942],[-62.02709075399997,-22.917535802999964],[-62.03612212799993,-22.87810499799997],[-62.07216892699995,-22.846667817999958],[-62.09866760899996,-22.805644171999973],[-62.13745698699995,-22.782950914999958],[-62.159202550999964,-22.758480390999978],[-62.16037618099995,-22.733410498999945],[-62.19557309199996,-22.69330245599997],[-62.19251388899994,-22.65333610999994],[-62.225740206999944,-22.62264169699995],[-62.26221814699994,-22.604116645999966],[-62.23378051699996,-22.570884143999933],[-62.234095396999976,-22.54432981399998],[-62.279428646999975,-22.51138700599995],[-62.29480844899996,-22.47594830199995],[-62.32880689299998,-22.483377365999957],[-62.355472762999966,-22.465573938999967],[-62.40385781699996,-22.451864329999978],[-62.42689559099995,-22.424092817999963],[-62.44727935999998,-22.421235929999966],[-62.480288101999975,-22.380821366999953],[-62.53347074599998,-22.369552752999937],[-62.542927351999936,-22.33986412099995],[-62.58749413987859,-22.319468091545573],[-62.342235923338755,-22.7071554775479],[-61.99945249974056,-23.249004029390942],[-61.94728256573319,-24.26083142060266],[-61.90319703645376,-25.115863096024867],[-61.87544403571122,-25.65412803490038],[-61.81558531126627,-26.815078267036647],[-61.71120967656539,-27.10139433431468],[-61.62047118801414,-27.35030191956865],[-61.383835962804625,-27.999423405206628],[-60.60638608610904,-30.13207047211253],[-59.6942195481819,-30.312002921309887],[-59.5573938654972,-30.33899292716398],[-57.912110667793215,-30.66353874536388],[-57.817407878918,-30.6822196594729]]],[[[-56.914825966999956,-27.42353991599998],[-56.97573975999995,-27.44672736399997],[-56.99400106899998,-27.46633779399997],[-56.93277979299995,-27.526781488999973],[-56.909418054999946,-27.532511975999967],[-56.87492019399997,-27.58037656999994],[-56.840421256999946,-27.596180553999943],[-56.79865264899996,-27.573545455999977],[-56.74914084499994,-27.562170420999962],[-56.72542760099998,-27.51227126899994],[-56.78342930799994,-27.49420976199997],[-56.83862287299996,-27.46101417999995],[-56.883373192999954,-27.424900522999963],[-56.914825966999956,-27.42353991599998]]],[[[-57.56661128099995,-27.385117799999932],[-57.58093158799994,-27.396204173999934],[-57.49218662599998,-27.438700799999935],[-57.40446485799998,-27.417964083999948],[-57.54041313499994,-27.39449885199997],[-57.56661128099995,-27.385117799999932]]]]}}]}